CTC1_L_00480001-01
1 23723U 26452OD  26070.40837963  .00000000  00000+0  00000-0 0  9990
2 23723  41.5000   0.0000 0000000   0.0000   0.0000 15.17631862    10
CTC1_L_00480002-01
1 23724U 24810GQ  26070.40837963  .00000000  00000+0  00000-0 0  9997
2 23724  41.5000  12.0000 0000000   0.0000  48.0000 15.17631862    16
CTC1_L_00480003-01
1 23725U 24775WK  26070.40837963  .00000000  00000+0  00000-0 0  9998
2 23725  41.5000  24.0000 0000000   0.0000  96.0000 15.17631862    13
CTC1_L_00480004-01
1 23726U 22720QU  26070.40837963  .00000000  00000+0  00000-0 0  9997
2 23726  41.5000  36.0000 0000000   0.0000 144.0000 15.17631862    11
CTC1_L_00480005-01
1 23727U 22693DI  26070.40837963  .00000000  00000+0  00000-0 0  9997
2 23727  41.5000  48.0000 0000000   0.0000 192.0000 15.17631862    18
CTC1_L_00480006-01
1 23728U 26201AF  26070.40837963  .00000000  00000+0  00000-0 0  9997
2 23728  41.5000  60.0000 0000000   0.0000 240.0000 15.17631862    17
CTC1_L_00480007-01
1 23729U 22352NV  26070.40837963  .00000000  00000+0  00000-0 0  9991
2 23729  41.5000  72.0000 0000000   0.0000 288.0000 15.17631862    13
CTC1_L_00480008-01
1 23730U 23120LY  26070.40837963  .00000000  00000+0  00000-0 0  9997
2 23730  41.5000  84.0000 0000000   0.0000 336.0000 15.17631862    12
CTC1_L_00480009-01
1 23731U 25707FX  26070.40837963  .00000000  00000+0  00000-0 0  9991
2 23731  41.5000  96.0000 0000000   0.0000  24.0000 15.17631862    10
CTC1_L_00480010-01
1 23732U 22794TS  26070.40837963  .00000000  00000+0  00000-0 0  9995
2 23732  41.5000 108.0000 0000000   0.0000  72.0000 15.17631862    18
CTC1_L_00480011-01
1 23733U 22010SJ  26070.40837963  .00000000  00000+0  00000-0 0  9997
2 23733  41.5000 120.0000 0000000   0.0000 120.0000 15.17631862    17
CTC1_L_00480012-01
1 23734U 25247CV  26070.40837963  .00000000  00000+0  00000-0 0  9993
2 23734  41.5000 132.0000 0000000   0.0000 168.0000 15.17631862    13
CTC1_L_00480013-01
1 23735U 22291TP  26070.40837963  .00000000  00000+0  00000-0 0  9990
2 23735  41.5000 144.0000 0000000   0.0000 216.0000 15.17631862    11
CTC1_L_00480014-01
1 23736U 23369PH  26070.40837963  .00000000  00000+0  00000-0 0  9998
2 23736  41.5000 156.0000 0000000   0.0000 264.0000 15.17631862    18
CTC1_L_00480015-01
1 23737U 26095KQ  26070.40837963  .00000000  00000+0  00000-0 0  9998
2 23737  41.5000 168.0000 0000000   0.0000 312.0000 15.17631862    16
CTC1_L_00480016-01
1 23738U 23443WW  26070.40837963  .00000000  00000+0  00000-0 0  9993
2 23738  41.5000 180.0000 0000000   0.0000   0.0000 15.17631862    15
CTC1_L_00480017-01
1 23739U 22149XC  26070.40837963  .00000000  00000+0  00000-0 0  9996
2 23739  41.5000 192.0000 0000000   0.0000  48.0000 15.17631862    11
CTC1_L_00480018-01
1 23740U 26610KN  26070.40837963  .00000000  00000+0  00000-0 0  9995
2 23740  41.5000 204.0000 0000000   0.0000  96.0000 15.17631862    10
CTC1_L_00480019-01
1 23741U 26652NJ  26070.40837963  .00000000  00000+0  00000-0 0  9992
2 23741  41.5000 216.0000 0000000   0.0000 144.0000 15.17631862    18
CTC1_L_00480020-01
1 23742U 26264O   26070.40837963  .00000000  00000+0  00000-0 0  9992
2 23742  41.5000 228.0000 0000000   0.0000 192.0000 15.17631862    15
CTC1_L_00480021-01
1 23743U 23911VJ  26070.40837963  .00000000  00000+0  00000-0 0  9999
2 23743  41.5000 240.0000 0000000   0.0000 240.0000 15.17631862    14
CTC1_L_00480022-01
1 23744U 22710WJ  26070.40837963  .00000000  00000+0  00000-0 0  9996
2 23744  41.5000 252.0000 0000000   0.0000 288.0000 15.17631862    10
CTC1_L_00480023-01
1 23745U 24378OO  26070.40837963  .00000000  00000+0  00000-0 0  9999
2 23745  41.5000 264.0000 0000000   0.0000 336.0000 15.17631862    18
CTC1_L_00480024-01
1 23746U 22290ZA  26070.40837963  .00000000  00000+0  00000-0 0  9991
2 23746  41.5000 276.0000 0000000   0.0000  24.0000 15.17631862    16
CTC1_L_00480025-01
1 23747U 22346OZ  26070.40837963  .00000000  00000+0  00000-0 0  9994
2 23747  41.5000 288.0000 0000000   0.0000  72.0000 15.17631862    13
CTC1_L_00480026-01
1 23748U 22952JA  26070.40837963  .00000000  00000+0  00000-0 0  9998
2 23748  41.5000 300.0000 0000000   0.0000 120.0000 15.17631862    13
CTC1_L_00480027-01
1 23749U 26557AC  26070.40837963  .00000000  00000+0  00000-0 0  9994
2 23749  41.5000 312.0000 0000000   0.0000 168.0000 15.17631862    19
CTC1_L_00480028-01
1 23750U 26864HT  26070.40837963  .00000000  00000+0  00000-0 0  9997
2 23750  41.5000 324.0000 0000000   0.0000 216.0000 15.17631862    18
CTC1_L_00480029-01
1 23751U 25434XJ  26070.40837963  .00000000  00000+0  00000-0 0  9990
2 23751  41.5000 336.0000 0000000   0.0000 264.0000 15.17631862    15
CTC1_L_00480030-01
1 23752U 25647RY  26070.40837963  .00000000  00000+0  00000-0 0  9997
2 23752  41.5000 348.0000 0000000   0.0000 312.0000 15.17631862    13
